[{"OBJECT_NAME":"SPACEMOBILE-003","OBJECT_ID":"2024-163A","EPOCH":"2026-03-09T22:12:19.490976","MEAN_MOTION":15.21123945,"ECCENTRICITY":0.00061285,"INCLINATION":52.9672,"RA_OF_ASC_NODE":45.9892,"ARG_OF_PERICENTER":185.2661,"MEAN_ANOMALY":174.827,"EPHEMERIS_TYPE":0,"CLASSIFICATION_TYPE":"U","NORAD_CAT_ID":61045,"ELEMENT_SET_NO":999,"REV_AT_EPOCH":8266,"BSTAR":0.00043932045,"MEAN_MOTION_DOT":9.59e-5,"MEAN_MOTION_DDOT":0},{"OBJECT_NAME":"COSMOS 2251 DEB","OBJECT_ID":"1993-036BUL","EPOCH":"2026-03-05T09:43:49.078560","MEAN_MOTION":15.21602098,"ECCENTRICITY":0.00125938,"INCLINATION":74.0076,"RA_OF_ASC_NODE":92.2729,"ARG_OF_PERICENTER":267.7507,"MEAN_ANOMALY":157.3736,"EPHEMERIS_TYPE":0,"CLASSIFICATION_TYPE":"U","NORAD_CAT_ID":39554,"ELEMENT_SET_NO":999,"REV_AT_EPOCH":65637,"BSTAR":0.0036804399,"MEAN_MOTION_DOT":0.00084191,"MEAN_MOTION_DDOT":0}]
